[{"OBJECT_NAME":"STARLINK-36123","OBJECT_ID":"2025-293E","EPOCH":"2026-03-09T16:00:03.000096","MEAN_MOTION":14.98362037,"ECCENTRICITY":0.0003577,"INCLINATION":69.9998,"RA_OF_ASC_NODE":94.4135,"ARG_OF_PERICENTER":276.095,"MEAN_ANOMALY":201.5645,"EPHEMERIS_TYPE":0,"CLASSIFICATION_TYPE":"U","NORAD_CAT_ID":67007,"ELEMENT_SET_NO":999,"REV_AT_EPOCH":578,"BSTAR":-0.0036852177,"MEAN_MOTION_DOT":-0.00043829,"MEAN_MOTION_DDOT":0},{"OBJECT_NAME":"TIUNGSAT-1 (MO-46)","OBJECT_ID":"2000-057D","EPOCH":"2026-03-09T15:36:52.176096","MEAN_MOTION":15.01128781,"ECCENTRICITY":0.003692,"INCLINATION":64.5465,"RA_OF_ASC_NODE":82.7132,"ARG_OF_PERICENTER":302.2682,"MEAN_ANOMALY":57.4857,"EPHEMERIS_TYPE":0,"CLASSIFICATION_TYPE":"U","NORAD_CAT_ID":26548,"ELEMENT_SET_NO":999,"REV_AT_EPOCH":38128,"BSTAR":0.00030184,"MEAN_MOTION_DOT":3.762e-5,"MEAN_MOTION_DDOT":0}]
